INTERCOSMOS 24          
1 20261U 89080A   25193.24179412  .00000682  00000+0  19174-3 0  9996
2 20261  82.6043 260.7590 1191343 130.5788 240.5341 12.59077724636120
SL-14 R/B               
1 20262U 89080C   25193.50937714  .00000086  00000+0  20272-4 0  9993
2 20262  82.5955 327.4191 1231027  13.7788 349.3913 12.50316571629702
DELTA 1 R/B             
1 20323U 89089B   25193.21859880  .00000159  00000+0  48172-4 0  9995
2 20323  97.1011  73.6044 0069682 161.0249 199.3570 14.50411602881408
ARIANE 40 R/B           
1 20443U 90005H   25193.42559827  .00000184  00000+0  72344-4 0  9995
2 20443  98.3448 255.7526 0009720 200.9034 159.1758 14.39653242858498
DELTA 2 R/B(1)          
1 20453U 90008B   25192.93824493  .00022637  00000+0  49510-3 0  9993
2 20453  35.6103 284.4407 0136284 224.4963 134.4753 15.33895016888920
COSMOS 2058             
1 20465U 90010A   25193.51335636  .00002282  00000+0  14239-3 0  9994
2 20465  82.4760 283.4930 0009689  88.9980 271.2359 15.09014289927106
SL-14 R/B               
1 20466U 90010B   25193.21570590  .00000334  00000+0  37826-4 0  9996
2 20466  82.5036 133.1913 0020377  16.8954 343.2935 14.83278540913898
SL-14 R/B               
1 20511U 90018B   25193.20531823  .00000287  00000+0  33191-4 0  9998
2 20511  82.5212  87.8409 0016859 158.5004 201.6922 14.81862254908054
HST                     
1 20580U 90037B   25193.23384705  .00003829  00000+0  13854-3 0  9991
2 20580  28.4672 235.1140 0002025  21.6061 338.4619 15.25540654736778
SL-16 R/B               
1 20625U 90046B   25193.41194448 -.00000207  00000+0 -82267-4 0  9998
2 20625  70.9997  82.5215 0016215 304.6292  55.3301 14.14970831814651
COSMOS 2084             
1 20663U 90055A   25192.68372001  .00001365  00000+0  11041-3 0  9996
2 20663  62.7896  76.3710 0057346 157.0664 203.3016 15.03779523900056
SL-6 R/B(2)             
1 20666U 90055D   25192.83232957  .00001300  00000+0  11300-3 0  9998
2 20666  62.7840 351.9285 0022649 198.0718 161.9578 15.02112755901993
SL-8 R/B                
1 20775U 90078B   25193.19630149  .00012356  00000+0  40188-3 0  9998
2 20775  82.9087 105.8600 0401734  96.8932 267.8148 14.78891488773622
SL-8 R/B                
1 21088U 91006B   25193.21745220  .00000094  00000+0  79579-4 0  9991
2 21088  82.9436 348.9318 0022208 352.3365 180.9834 13.77463501731236
OKEAN-3                 
1 21397U 91039A   25193.46828807  .00001880  00000+0  13779-3 0  9993
2 21397  82.5161 209.2159 0016249  71.2301 289.0686 15.02875145850012
COSMOS 2151             
1 21422U 91042A   25193.18503558  .00001242  00000+0  10035-3 0  9992
2 21422  82.4987 315.3881 0013378 147.1120 213.0939 14.98921322848309
SL-14 R/B               
1 21423U 91042B   25193.20878190  .00000276  00000+0  32201-4 0  9999
2 21423  82.4928  85.6697 0016007 315.3550  44.6374 14.81561443838503
ERS-1                   
1 21574U 91050A   25193.51696123  .00000149  00000+0  62633-4 0  9994
2 21574  98.7917 200.6806 0031780 192.5823 167.4574 14.39211765781169
ARIANE 40 R/B           
1 21610U 91050F   25193.44510281  .00000214  00000+0  76870-4 0  9998
2 21610  98.2381 249.2094 0004455  86.3110 273.8590 14.42652824784629
INTERCOSMOS 25          
1 21819U 91086A   25193.18104972  .00000715  00000+0  14308-3 0  9998
2 21819  82.6055  95.3461 1489085 275.1093  68.2291 12.11110127467573
SL-8 R/B                
1 21876U 92008B   25193.18099363  .00000094  00000+0  80960-4 0  9991
2 21876  82.9263  86.6503 0036120  86.4031  25.3571 13.75935899676571
SL-8 R/B                
1 21938U 92020B   25192.78600946  .00000093  00000+0  81296-4 0  9996
2 21938  82.9323 332.6707 0027800 249.2284 221.5936 13.75514520668010
USA 81                  
1 21949U 92023A   25192.91893413  .00000136  00000+0  42918-4 0  9995
2 21949  85.0071 270.3093 0002766  89.7148 270.4361 14.32251807 60327
COSMOS 2219             
1 22219U 92076A   25192.86475234  .00000111  00000+0  83107-4 0  9993
2 22219  71.0603 161.4797 0019155 214.2110 145.7780 14.14037067684331
SL-16 R/B               
1 22220U 92076B   25193.51274852  .00000245  00000+0  14596-3 0  9994
2 22220  71.0014 334.2829 0010752 103.3630 322.0778 14.16809536688144
COSMOS 2221             
1 22236U 92080A   25193.37591544  .00001280  00000+0  11475-3 0  9993
2 22236  82.5056 148.9915 0012925 281.7904  78.1867 14.94956324765923
SL-16 R/B               
1 22285U 92093B   25192.96206405 -.00000154  00000+0 -54480-4 0  9999
2 22285  71.0215 149.5987 0006256 299.8886  60.1615 14.15402492679091
COSMOS 2228             
1 22286U 92094A   25193.20733751  .00001486  00000+0  13035-3 0  9995
2 22286  82.5188 107.3089 0019634  35.8081 324.4452 14.95804923761160
SL-16 R/B               
1 22566U 93016B   25192.76655772 -.00000134  00000+0 -44441-4 0  9994
2 22566  71.0089   1.1738 0011720 320.5181  39.5087 14.15264911668083
COSMOS 2242             
1 22626U 93024A   25193.36067535  .00001482  00000+0  13199-3 0  9991
2 22626  82.5203 136.3160 0017872  38.2708 321.9778 14.95252438744783
SL-16 R/B               
1 22803U 93059B   25193.35520872  .00000147  00000+0  96570-4 0  9995
2 22803  70.9897 157.9247 0018580 222.2362 137.7331 14.17181147645749
ARIANE 40 R/B           
1 22830U 93061H   25193.18647324  .00000137  00000+0  66382-4 0  9998
2 22830  98.5259 261.3540 0009510 276.3128  83.6973 14.32675328659917
COSMOS 2278             
1 23087U 94023A   25192.77688594 -.00000271  00000+0 -11697-3 0  9999
2 23087  71.0547 319.1044 0007780  21.9940 338.1515 14.14305211610741
SL-16 R/B               
1 23088U 94023B   25192.79347996 -.00000105  00000+0 -29438-4 0  9999
2 23088  70.9985 216.7721 0005555 290.8149  69.2379 14.14973611612013
SL-16 R/B               
1 23343U 94074B   25193.54182244  .00000294  00000+0  46431-4 0  9995
2 23343  97.7378 228.7497 0005202 287.0136 240.3030 14.79065744651958
SL-16 R/B               
1 23405U 94077B   25192.86900502 -.00000026  00000+0  10977-4 0  9996
2 23405  70.9831 139.1130 0003134 217.1805 142.9101 14.15524145582158
ARIANE 40+ R/B          
1 23561U 95021B   25193.20403428  .00000199  00000+0  77857-4 0  9993
2 23561  98.4826 262.4996 0007672 135.8190 286.9026 14.39547899584866
SL-16 R/B               
1 23705U 95058B   25192.79335185 -.00000275  00000+0 -11640-3 0  9994
2 23705  71.0226 325.9966 0010837 134.1279 226.0737 14.15451590533769
SL-16 R/B               
1 24298U 96051B   25192.80465395 -.00000193  00000+0 -78059-4 0  9992
2 24298  70.7675 325.0587 0014029 137.3974 222.8236 14.12408728487639
ORBVIEW 2 (SEASTAR)     
1 24883U 97037A   25192.71688216  .00000136  00000+0  63670-4 0  9994
2 24883  98.8290 346.0794 0003138  64.7125 295.4384 14.35266921473903
SL-16 R/B               
1 25400U 98043G   25193.48575250  .00000025  00000+0  29543-4 0  9994
2 25400  98.7885 140.6700 0009805 358.0656   2.0484 14.25977321404985
SL-16 R/B               
1 25407U 98045B   25192.78103646  .00000111  00000+0  80375-4 0  9997
2 25407  71.0122 328.1809 0006559  16.9828 343.1514 14.16142823392998
ISS (ZARYA)             
1 25544U 98067A   25193.46733016  .00007927  00000+0  14419-3 0  9996
2 25544  51.6338 181.7640 0002647   3.5819 356.5188 15.50499706519085
CZ-4B R/B               
1 25732U 99025C   25192.89994838  .00000043  00000+0  41917-4 0  9993
2 25732  98.6980 237.4044 0036357 318.4899 214.8565 14.18196830354038
OKEAN-O                 
1 25860U 99039A   25193.18048320  .00000475  00000+0  69951-4 0  9996
2 25860  97.9822 250.0236 0001769  76.8687 283.2722 14.79836968398909
SL-16 R/B               
1 25861U 99039B   25193.12339925  .00000322  00000+0  48200-4 0  9990
2 25861  98.0345 247.0660 0013982 321.8312  38.1909 14.81309501401378
DELTA 2 R/B             
1 25876U 99041E   25193.37804835  .00001522  00000+0  28499-3 0  9993
2 25876  51.7607 180.3355 0506846 359.7126   0.3447 14.10798503329115
HELIOS 1B               
1 25977U 99064A   25193.16432570  .00000853  00000+0  10291-3 0  9997
2 25977  98.1920  83.2793 0002373 104.8957 255.2521 14.86543501380811
TERRA                   
1 25994U 99068A   25193.52439218  .00000277  00000+0  66019-4 0  9996
2 25994  97.9967 250.6247 0001772 182.8908 313.2442 14.60730681360135
SL-16 R/B               
1 26070U 00006B   25193.22868510 -.00000004  00000+0  22415-4 0  9995
2 26070  71.0015 243.4218 0016963 195.5034 164.5571 14.15781660314508
TITAN 4B R/B            
1 26474U 00047B   25193.52374199  .00001740  00000+0  12100-3 0  9992
2 26474  67.9894 354.6166 0047061 306.7121  52.9707 15.07331036356774
ENVISAT                 
1 27386U 02009A   25193.52180083  .00000053  00000+0  30984-4 0  9999
2 27386  98.3350 148.3771 0001359  84.4889  31.2299 14.38926745224706
IDEFIX & ARIANE 42P R/B 
1 27422U 02021B   25193.44184812  .00000153  00000+0  75119-4 0  9999
2 27422  98.5610 130.3204 0011872 169.2269 190.9170 14.30806914207760
AQUA                    
1 27424U 02022A   25193.54735007  .00000555  00000+0  12209-3 0  9997
2 27424  98.3790 152.2194 0001188  53.2426  37.8453 14.61341952233690
CZ-4B R/B               
1 27432U 02024C   25193.42260676  .00000022  00000+0  34765-4 0  9991
2 27432  98.9218 242.5150 0049871 346.2485  23.9927 14.14490619195351
MIDORI II (ADEOS-II)    
1 27597U 02056A   25192.47787593  .00000163  00000+0  81941-4 0  9998
2 27597  98.7390 144.8613 0001413  38.6776 321.4506 14.29065265175847
H-2A R/B                
1 27601U 02056E   25192.78285230  .00000135  00000+0  61895-4 0  9994
2 27601  98.2805 157.9022 0070841 158.6769 264.7011 14.33522597179591
CZ-4B R/B               
1 28059U 03049C   25193.21989227  .00000198  00000+0  57581-4 0  9997
2 28059  98.6605 174.1264 0047316 245.0882 114.5392 14.54704881151616
CZ-2C R/B               
1 28222U 04012C   25192.85227293  .00015551  00000+0  32509-3 0  9998
2 28222  97.7638 233.9707 0024451 107.9335 252.4581 15.45262214166892
